IRIDIUM 116             
1 43072U 17083C   23304.54901309  .00000426  00000+0  14501-3 0  9993
2 43072  86.4009   3.0854 0002334  93.7072 266.4390 14.34218474306620
IRIDIUM 130             
1 43073U 17083D   23304.86614928  .00000447  00000+0  15269-3 0  9992
2 43073  86.4017   3.1351 0002101  95.1669 264.9767 14.34219777306610
IRIDIUM 151             
1 43074U 17083E   23304.63147347  .00000428  00000+0  14559-3 0  9994
2 43074  86.4010   3.0870 0002317  89.3140 270.8321 14.34219838306606
IRIDIUM 134             
1 43075U 17083F   23304.87882730  .00000448  00000+0  15284-3 0  9991
2 43075  86.4012   2.9787 0002128  96.7469 263.3969 14.34221505306609
IRIDIUM 137             
1 43076U 17083G   23304.89151372  .00000449  00000+0  15320-3 0  9997
2 43076  86.4013   3.0471 0002555  91.9753 268.1735 14.34221023306676
IRIDIUM 141             
1 43077U 17083H   23304.53632594  .00000417  00000+0  14167-3 0  9992
2 43077  86.4010   3.0804 0002059  89.8207 270.3225 14.34221095306626
IRIDIUM 153             
1 43078U 17083J   23304.83735148  .00000485  00000+0  16602-3 0  9996
2 43078  86.3963 331.4200 0001902  86.5079 273.6334 14.34219263307776
IRIDIUM 131             
1 43079U 17083K   23304.87248614  .00000450  00000+0  15378-3 0  9999
2 43079  86.4014   3.0618 0002095  92.6188 267.5247 14.34221054306600
